[{"OBJECT_NAME":"LEMUR-2-AMANDA-SVANTE","OBJECT_ID":"2021-034B","EPOCH":"2026-03-09T18:37:58.823328","MEAN_MOTION":15.28469003,"ECCENTRICITY":0.00027027,"INCLINATION":97.5829,"RA_OF_ASC_NODE":144.8625,"ARG_OF_PERICENTER":205.4721,"MEAN_ANOMALY":154.6385,"EPHEMERIS_TYPE":0,"CLASSIFICATION_TYPE":"U","NORAD_CAT_ID":48269,"ELEMENT_SET_NO":999,"REV_AT_EPOCH":26584,"BSTAR":0.0011134246,"MEAN_MOTION_DOT":0.00030872,"MEAN_MOTION_DDOT":0},{"OBJECT_NAME":"STARLINK-34129","OBJECT_ID":"2025-111R","EPOCH":"2026-03-09T10:42:17.556192","MEAN_MOTION":15.27593456,"ECCENTRICITY":0.00014672,"INCLINATION":43.0005,"RA_OF_ASC_NODE":79.4557,"ARG_OF_PERICENTER":268.7528,"MEAN_ANOMALY":91.3156,"EPHEMERIS_TYPE":0,"CLASSIFICATION_TYPE":"U","NORAD_CAT_ID":64138,"ELEMENT_SET_NO":999,"REV_AT_EPOCH":4547,"BSTAR":0.00098116297,"MEAN_MOTION_DOT":0.00026847,"MEAN_MOTION_DDOT":0}]
